ONEWEB-0156             
1 48052U 21025L   26052.32820941  .00000323  00000+0  85083-3 0  9997
2 48052  87.9050 343.2469 0001907  77.8725 282.2618 13.13471147238367
ONEWEB-0161             
1 48053U 21025M   26052.30281715 -.00000130  00000+0 -39216-3 0  9991
2 48053  87.9037 343.2632 0001957  79.5742 280.5608 13.13472192238291
ONEWEB-0158             
1 48054U 21025N   26052.33836887  .00000336  00000+0  88602-3 0  9990
2 48054  87.9047 343.2453 0001459  83.3153 276.8142 13.13469146238421
ONEWEB-0157             
1 48055U 21025P   26052.28757250 -.00000200  00000+0 -58266-3 0  9996
2 48055  87.9046 343.2601 0002172  83.5349 276.6028 13.13467936238356
ONEWEB-0162             
1 48056U 21025Q   26052.33993369  .00000295  00000+0  77363-3 0  9997
2 48056  87.9049 343.2540 0001861  74.5694 285.5641 13.13470427238336
ONEWEB-0155             
1 48057U 21025R   26052.34682861  .00000151  00000+0  37985-3 0  9998
2 48057  87.9042 343.2526 0001866  84.4973 275.6369 13.13470814238471
ONEWEB-0149             
1 48058U 21025S   26052.29265071 -.00000219  00000+0 -63447-3 0  9992
2 48058  87.9047 343.2595 0001910  73.5897 286.5442 13.13468320238277
ONEWEB-0148             
1 48059U 21025T   26052.33160732  .00000383  00000+0  10142-2 0  9999
2 48059  87.9041 343.2672 0002234  67.4510 292.6855 13.13469797238402
ONEWEB-0160             
1 48060U 21025U   26052.34851817  .00000091  00000+0  21482-3 0  9999
2 48060  87.9041 343.2604 0001075  67.9339 292.1904 13.13468327238357
ONEWEB-0163             
1 48061U 21025V   26052.33329399  .00000375  00000+0  99123-3 0  9996
2 48061  87.9042 343.2553 0002040  83.4014 276.7347 13.13470959238474
ONEWEB-0159             
1 48062U 21025W   26052.32481210  .00000372  00000+0  98254-3 0  9998
2 48062  87.9049 343.2423 0002015  78.0389 282.0966 13.13473229238396
ONEWEB-0164             
1 48063U 21025X   26052.30619692 -.00000074  00000+0 -23877-3 0  9994
2 48063  87.9047 343.2525 0001709  78.1197 282.0124 13.13471585238372
ONEWEB-0167             
1 48064U 21025Y   26052.33414396  .00000359  00000+0  94792-3 0  9990
2 48064  87.9039 343.2679 0002060  97.7984 262.3379 13.13469854238364
ONEWEB-0166             
1 48065U 21025Z   26052.28080262 -.00000106  00000+0 -32502-3 0  9999
2 48065  87.9047 343.2400 0001952  75.7486 284.3859 13.13468256238438
ONEWEB-0151             
1 48066U 21025AA  26052.28250110 -.00000113  00000+0 -34428-3 0  9998
2 48066  87.9045 343.2664 0001773  83.7284 276.4047 13.13471293238374
ONEWEB-0170             
1 48067U 21025AB  26052.29095718 -.00000270  00000+0 -77337-3 0  9991
2 48067  87.9041 343.2667 0001450  90.1448 269.9848 13.13468271238334
ONEWEB-0168             
1 48068U 21025AC  26052.27572723  .00000030  00000+0  46797-4 0  9995
2 48068  87.9050 343.2593 0001993  80.7063 279.4291 13.13468124238349
