[{"OBJECT_NAME":"ONEWEB-0156","OBJECT_ID":"2021-025L","EPOCH":"2026-02-21T07:52:37.293024","MEAN_MOTION":13.13471147,"ECCENTRICITY":0.00019077,"INCLINATION":87.905,"RA_OF_ASC_NODE":343.2469,"ARG_OF_PERICENTER":77.8725,"MEAN_ANOMALY":282.2618,"EPHEMERIS_TYPE":0,"CLASSIFICATION_TYPE":"U","NORAD_CAT_ID":48052,"ELEMENT_SET_NO":999,"REV_AT_EPOCH":23836,"BSTAR":0.00085082545,"MEAN_MOTION_DOT":3.23e-6,"MEAN_MOTION_DDOT":0},{"OBJECT_NAME":"ONEWEB-0161","OBJECT_ID":"2021-025M","EPOCH":"2026-02-21T07:16:03.401760","MEAN_MOTION":13.13472192,"ECCENTRICITY":0.00019577,"INCLINATION":87.9037,"RA_OF_ASC_NODE":343.2632,"ARG_OF_PERICENTER":79.5742,"MEAN_ANOMALY":280.5608,"EPHEMERIS_TYPE":0,"CLASSIFICATION_TYPE":"U","NORAD_CAT_ID":48053,"ELEMENT_SET_NO":999,"REV_AT_EPOCH":23829,"BSTAR":-0.0003921638,"MEAN_MOTION_DOT":-1.3e-6,"MEAN_MOTION_DDOT":0},{"OBJECT_NAME":"ONEWEB-0158","OBJECT_ID":"2021-025N","EPOCH":"2026-02-21T08:07:15.070368","MEAN_MOTION":13.13469146,"ECCENTRICITY":0.00014596,"INCLINATION":87.9047,"RA_OF_ASC_NODE":343.2453,"ARG_OF_PERICENTER":83.3153,"MEAN_ANOMALY":276.8142,"EPHEMERIS_TYPE":0,"CLASSIFICATION_TYPE":"U","NORAD_CAT_ID":48054,"ELEMENT_SET_NO":999,"REV_AT_EPOCH":23842,"BSTAR":0.00088602074,"MEAN_MOTION_DOT":3.36e-6,"MEAN_MOTION_DDOT":0},{"OBJECT_NAME":"ONEWEB-0157","OBJECT_ID":"2021-025P","EPOCH":"2026-02-21T06:54:06.264000","MEAN_MOTION":13.13467936,"ECCENTRICITY":0.0002172,"INCLINATION":87.9046,"RA_OF_ASC_NODE":343.2601,"ARG_OF_PERICENTER":83.5349,"MEAN_ANOMALY":276.6028,"EPHEMERIS_TYPE":0,"CLASSIFICATION_TYPE":"U","NORAD_CAT_ID":48055,"ELEMENT_SET_NO":999,"REV_AT_EPOCH":23835,"BSTAR":-0.00058266,"MEAN_MOTION_DOT":-2.0e-6,"MEAN_MOTION_DDOT":0},{"OBJECT_NAME":"ONEWEB-0162","OBJECT_ID":"2021-025Q","EPOCH":"2026-02-21T08:09:30.270816","MEAN_MOTION":13.13470427,"ECCENTRICITY":0.00018617,"INCLINATION":87.9049,"RA_OF_ASC_NODE":343.254,"ARG_OF_PERICENTER":74.5694,"MEAN_ANOMALY":285.5641,"EPHEMERIS_TYPE":0,"CLASSIFICATION_TYPE":"U","NORAD_CAT_ID":48056,"ELEMENT_SET_NO":999,"REV_AT_EPOCH":23833,"BSTAR":0.00077362813,"MEAN_MOTION_DOT":2.95e-6,"MEAN_MOTION_DDOT":0},{"OBJECT_NAME":"ONEWEB-0155","OBJECT_ID":"2021-025R","EPOCH":"2026-02-21T08:19:25.991904","MEAN_MOTION":13.13470814,"ECCENTRICITY":0.00018663,"INCLINATION":87.9042,"RA_OF_ASC_NODE":343.2526,"ARG_OF_PERICENTER":84.4973,"MEAN_ANOMALY":275.6369,"EPHEMERIS_TYPE":0,"CLASSIFICATION_TYPE":"U","NORAD_CAT_ID":48057,"ELEMENT_SET_NO":999,"REV_AT_EPOCH":23847,"BSTAR":0.00037984888,"MEAN_MOTION_DOT":1.51e-6,"MEAN_MOTION_DDOT":0},{"OBJECT_NAME":"ONEWEB-0149","OBJECT_ID":"2021-025S","EPOCH":"2026-02-21T07:01:25.021344","MEAN_MOTION":13.1346832,"ECCENTRICITY":0.000191,"INCLINATION":87.9047,"RA_OF_ASC_NODE":343.2595,"ARG_OF_PERICENTER":73.5897,"MEAN_ANOMALY":286.5442,"EPHEMERIS_TYPE":0,"CLASSIFICATION_TYPE":"U","NORAD_CAT_ID":48058,"ELEMENT_SET_NO":999,"REV_AT_EPOCH":23827,"BSTAR":-0.00063447,"MEAN_MOTION_DOT":-2.19e-6,"MEAN_MOTION_DDOT":0},{"OBJECT_NAME":"ONEWEB-0148","OBJECT_ID":"2021-025T","EPOCH":"2026-02-21T07:57:30.872448","MEAN_MOTION":13.13469797,"ECCENTRICITY":0.00022345,"INCLINATION":87.9041,"RA_OF_ASC_NODE":343.2672,"ARG_OF_PERICENTER":67.451,"MEAN_ANOMALY":292.6855,"EPHEMERIS_TYPE":0,"CLASSIFICATION_TYPE":"U","NORAD_CAT_ID":48059,"ELEMENT_SET_NO":999,"REV_AT_EPOCH":23840,"BSTAR":0.001014232,"MEAN_MOTION_DOT":3.83e-6,"MEAN_MOTION_DDOT":0},{"OBJECT_NAME":"ONEWEB-0160","OBJECT_ID":"2021-025U","EPOCH":"2026-02-21T08:21:51.969888","MEAN_MOTION":13.13468327,"ECCENTRICITY":0.00010759,"INCLINATION":87.9041,"RA_OF_ASC_NODE":343.2604,"ARG_OF_PERICENTER":67.9339,"MEAN_ANOMALY":292.1904,"EPHEMERIS_TYPE":0,"CLASSIFICATION_TYPE":"U","NORAD_CAT_ID":48060,"ELEMENT_SET_NO":999,"REV_AT_EPOCH":23835,"BSTAR":0.00021482482,"MEAN_MOTION_DOT":9.1e-7,"MEAN_MOTION_DDOT":0},{"OBJECT_NAME":"ONEWEB-0163","OBJECT_ID":"2021-025V","EPOCH":"2026-02-21T07:59:56.600736","MEAN_MOTION":13.13470959,"ECCENTRICITY":0.00020408,"INCLINATION":87.9042,"RA_OF_ASC_NODE":343.2553,"ARG_OF_PERICENTER":83.4014,"MEAN_ANOMALY":276.7347,"EPHEMERIS_TYPE":0,"CLASSIFICATION_TYPE":"U","NORAD_CAT_ID":48061,"ELEMENT_SET_NO":999,"REV_AT_EPOCH":23847,"BSTAR":0.00099122539,"MEAN_MOTION_DOT":3.75e-6,"MEAN_MOTION_DDOT":0},{"OBJECT_NAME":"ONEWEB-0159","OBJECT_ID":"2021-025W","EPOCH":"2026-02-21T07:47:43.765440","MEAN_MOTION":13.13473229,"ECCENTRICITY":0.00020156,"INCLINATION":87.9049,"RA_OF_ASC_NODE":343.2423,"ARG_OF_PERICENTER":78.0389,"MEAN_ANOMALY":282.0966,"EPHEMERIS_TYPE":0,"CLASSIFICATION_TYPE":"U","NORAD_CAT_ID":48062,"ELEMENT_SET_NO":999,"REV_AT_EPOCH":23839,"BSTAR":0.00098254282,"MEAN_MOTION_DOT":3.72e-6,"MEAN_MOTION_DDOT":0},{"OBJECT_NAME":"ONEWEB-0164","OBJECT_ID":"2021-025X","EPOCH":"2026-02-21T07:20:55.413888","MEAN_MOTION":13.13471585,"ECCENTRICITY":0.00017092,"INCLINATION":87.9047,"RA_OF_ASC_NODE":343.2525,"ARG_OF_PERICENTER":78.1197,"MEAN_ANOMALY":282.0124,"EPHEMERIS_TYPE":0,"CLASSIFICATION_TYPE":"U","NORAD_CAT_ID":48063,"ELEMENT_SET_NO":999,"REV_AT_EPOCH":23837,"BSTAR":-0.00023876577,"MEAN_MOTION_DOT":-7.4e-7,"MEAN_MOTION_DDOT":0},{"OBJECT_NAME":"ONEWEB-0167","OBJECT_ID":"2021-025Y","EPOCH":"2026-02-21T08:01:10.038144","MEAN_MOTION":13.13469854,"ECCENTRICITY":0.00020609,"INCLINATION":87.9039,"RA_OF_ASC_NODE":343.2679,"ARG_OF_PERICENTER":97.7984,"MEAN_ANOMALY":262.3379,"EPHEMERIS_TYPE":0,"CLASSIFICATION_TYPE":"U","NORAD_CAT_ID":48064,"ELEMENT_SET_NO":999,"REV_AT_EPOCH":23836,"BSTAR":0.00094792029,"MEAN_MOTION_DOT":3.59e-6,"MEAN_MOTION_DDOT":0},{"OBJECT_NAME":"ONEWEB-0166","OBJECT_ID":"2021-025Z","EPOCH":"2026-02-21T06:44:21.346368","MEAN_MOTION":13.13468256,"ECCENTRICITY":0.0001952,"INCLINATION":87.9047,"RA_OF_ASC_NODE":343.24,"ARG_OF_PERICENTER":75.7486,"MEAN_ANOMALY":284.3859,"EPHEMERIS_TYPE":0,"CLASSIFICATION_TYPE":"U","NORAD_CAT_ID":48065,"ELEMENT_SET_NO":999,"REV_AT_EPOCH":23843,"BSTAR":-0.00032502,"MEAN_MOTION_DOT":-1.06e-6,"MEAN_MOTION_DDOT":0},{"OBJECT_NAME":"ONEWEB-0151","OBJECT_ID":"2021-025AA","EPOCH":"2026-02-21T06:46:48.095040","MEAN_MOTION":13.13471293,"ECCENTRICITY":0.0001773,"INCLINATION":87.9045,"RA_OF_ASC_NODE":343.2664,"ARG_OF_PERICENTER":83.7284,"MEAN_ANOMALY":276.4047,"EPHEMERIS_TYPE":0,"CLASSIFICATION_TYPE":"U","NORAD_CAT_ID":48066,"ELEMENT_SET_NO":999,"REV_AT_EPOCH":23837,"BSTAR":-0.00034428,"MEAN_MOTION_DOT":-1.13e-6,"MEAN_MOTION_DDOT":0},{"OBJECT_NAME":"ONEWEB-0170","OBJECT_ID":"2021-025AB","EPOCH":"2026-02-21T06:58:58.700352","MEAN_MOTION":13.13468271,"ECCENTRICITY":0.000145,"INCLINATION":87.9041,"RA_OF_ASC_NODE":343.2667,"ARG_OF_PERICENTER":90.1448,"MEAN_ANOMALY":269.9848,"EPHEMERIS_TYPE":0,"CLASSIFICATION_TYPE":"U","NORAD_CAT_ID":48067,"ELEMENT_SET_NO":999,"REV_AT_EPOCH":23833,"BSTAR":-0.00077337,"MEAN_MOTION_DOT":-2.7e-6,"MEAN_MOTION_DDOT":0},{"OBJECT_NAME":"ONEWEB-0168","OBJECT_ID":"2021-025AC","EPOCH":"2026-02-21T06:37:02.832672","MEAN_MOTION":13.13468124,"ECCENTRICITY":0.0001993,"INCLINATION":87.905,"RA_OF_ASC_NODE":343.2593,"ARG_OF_PERICENTER":80.7063,"MEAN_ANOMALY":279.4291,"EPHEMERIS_TYPE":0,"CLASSIFICATION_TYPE":"U","NORAD_CAT_ID":48068,"ELEMENT_SET_NO":999,"REV_AT_EPOCH":23834,"BSTAR":4.6797e-5,"MEAN_MOTION_DOT":3.0e-7,"MEAN_MOTION_DDOT":0}]
